NAVSTAR 48 (USA 151)    
1 26407U 00040A   26174.28512105  .00000052  00000+0  00000+0 0  9992
2 26407  54.8508 214.9200 0120961 302.5244  64.1899  2.00557780190076
NAVSTAR 51 (USA 166)    
1 27663U 03005A   26176.08070955  .00000073  00000+0  00000+0 0  9996
2 27663  54.8812 214.6551 0148002  53.0935 306.1631  2.00560235171460
NAVSTAR 54 (USA 177)    
1 28190U 04009A   26175.31167499 -.00000071  00000+0  00000+0 0  9991
2 28190  54.8236 275.3992 0116405 173.4104 143.5535  2.00554582163089
NAVSTAR 56 (USA 180)    
1 28474U 04045A   26174.75957648 -.00000105  00000+0  00000+0 0  9994
2 28474  55.1318 324.6314 0169898 316.5740  26.7212  2.00556268158558
NAVSTAR 57 (USA 183)    
1 28874U 05038A   26174.29716620 -.00000072  00000+0  00000+0 0  9996
2 28874  54.8729 272.9307 0127942 296.2134  37.1387  2.00565318151958
INMARSAT 4-F2           
1 28899U 05044A   26175.98301796 -.00000256  00000+0  00000+0 0  9995
2 28899   5.1055  43.6925 0003240  39.9506 326.8574  1.00272215 75607
NAVSTAR 58 (USA 190)    
1 29486U 06042A   26175.13988986  .00000068  00000+0  00000+0 0  9996
2 29486  54.7116 151.0629 0106705  54.5858  65.8467  2.00569486144536
NAVSTAR 59 (USA 192)    
1 29601U 06052A   26172.90572389  .00000037  00000+0  00000+0 0  9990
2 29601  54.9339 213.8191 0085492  90.7942 270.2511  2.00558294143503
NAVSTAR 60 (USA 196)    
1 32260U 07047A   26175.20521529 -.00000076  00000+0  00000+0 0  9990
2 32260  54.1002  79.7762 0167026  87.5303 274.3912  2.00554963136959
COSMOS 2433 [GLONASS-M] 
1 32275U 07052A   26174.95449183 -.00000082  00000+0  00000+0 0  9995
2 32275  65.5727 315.7051 0002790 194.8015 165.1813  2.13104086145203
COSMOS 2432 [GLONASS-M] 
1 32276U 07052B   26175.96663789 -.00000084  00000+0  00000+0 0  9990
2 32276  65.5880 315.7989 0007447 329.0779  31.2465  2.13103129145255
NAVSTAR 61 (USA 199)    
1 32384U 07062A   26175.02709910 -.00000070  00000+0  00000+0 0  9990
2 32384  55.0261 273.8775 0035822 166.0586 192.8031  2.00560588135649
COSMOS 2434 [GLONASS-M] 
1 32393U 07065A   26175.24269938  .00000104  00000+0  00000+0 0  9995
2 32393  64.3185 191.6780 0001218 329.6541 141.2402  2.13101274143927
COSMOS 2436 [GLONASS-M] 
1 32395U 07065C   26173.14632410  .00000084  00000+0  00000+0 0  9990
2 32395  64.3269 191.8207 0017276 353.7327  81.1911  2.13100062143830
NAVSTAR 62 (USA 201)    
1 32711U 08012A   26174.11880639  .00000072  00000+0  00000+0 0  9998
2 32711  54.4982 149.6877 0211378 247.9177 109.8083  2.00572612133875
NAVSTAR 64 (USA 206)    
1 35752U 09043A   26174.61852273 -.00000097  00000+0  00000+0 0  9997
2 35752  56.2144  27.1991 0053789  83.4687 286.6867  2.00554013123495
COSMOS 2456 [GLONASS-M] 
1 36111U 09070A   26175.13840201 -.00000070  00000+0  00000+0 0  9994
2 36111  65.0154  70.7346 0004336 335.5645 213.4976  2.13103579128575
COSMOS 2457 [GLONASS-M] 
1 36112U 09070B   26174.95633448 -.00000070  00000+0  00000+0 0  9997
2 36112  65.0012  70.5847 0003066 122.1178  54.6156  2.13101046128575
COSMOS 2460 [GLONASS-M] 
1 36402U 10007C   26175.59892152 -.00000084  00000+0  00000+0 0  9996
2 36402  65.4157 314.2152 0002044 120.3495 191.3100  2.13101547126881
NAVSTAR 65 (USA 213)    
1 36585U 10022A   26176.17923404  .00000082  00000+0  00000+0 0  9992
2 36585  54.2698 208.2400 0126409  66.1256 109.8583  2.00562897117751
BEIDOU-2 IGSO-1         
1 36828U 10036A   26175.90431008 -.00000048  00000+0  00000+0 0  9994
2 36828  54.3046 162.8893 0059116 225.3958 317.8898  1.00270002 58171
BEIDOU-2 G4             
1 37210U 10057A   26175.01789735 -.00000108  00000+0  00000+0 0  9995
2 37210   3.6646  68.9169 0004925 194.9940 174.6911  1.00271133 57363
BEIDOU-2 IGSO-2         
1 37256U 10068A   26174.58485275 -.00000229  00000+0  00000+0 0  9994
2 37256  47.5346 271.7512 0056069 213.1468 105.4665  1.00281206 56851
BEIDOU-2 IGSO-3         
1 37384U 11013A   26174.55036299 -.00000196  00000+0  00000+0 0  9995
2 37384  62.4163  40.0898 0034966 184.1575 353.0787  1.00266402 55720
GSAT-8                  
1 37605U 11022A   26176.17940737  .00000092  00000+0  00000+0 0  9996
2 37605   2.1520  81.7360 0001691 187.7973 123.4401  1.00272388 53292
BEIDOU-2 IGSO-4         
1 37763U 11038A   26171.66976073  .00000027  00000+0  00000+0 0  9997
2 37763  54.6011 165.6404 0159492 231.4735 206.4270  1.00284412 54682
GSAT0101 (GALILEO-PFM)  
1 37846U 11060A   26174.30083960 -.00000098  00000+0  00000+0 0  9991
2 37846  56.9921 341.5952 0002928  54.5594 305.4650  1.70475800 91223
GSAT0102 (GALILEO-FM2)  
1 37847U 11060B   26174.76684402 -.00000098  00000+0  00000+0 0  9990
2 37847  56.9927 341.5831 0002896  14.6651 316.9838  1.70476044 91238
COSMOS 2476 [GLONASS-M] 
1 37867U 11064A   26173.36699142 -.00000061  00000+0  00000+0 0  9998
2 37867  65.2731  72.6963 0022606 238.5611 299.8582  2.13103651113877
COSMOS 2477 [GLONASS-M] 
1 37868U 11064B   26171.26952727 -.00000039  00000+0  00000+0 0  9992
2 37868  65.2782  72.8466 0019648 240.0065 309.6331  2.13102843113826
COSMOS 2475 [GLONASS-M] 
1 37869U 11064C   26175.60201064 -.00000069  00000+0  00000+0 0  9999
2 37869  65.2875  72.7218 0025371 252.8392 335.6275  2.13101777113920
